KUIPER-00027            
1 63740U 25088S   25232.58335648 -.01456912  00000+0 -69062-1 0  9992
2 63740  51.8807 269.6832 0001177 226.3847 260.7595 15.21816080 17762
KUIPER-00028            
1 63741U 25088T   25232.58335648 -.01089221  00000+0 -47141-1 0  9992
2 63741  51.8778 269.1205 0002228 132.5852 234.4132 15.24954876 18182
KUIPER-00029            
1 63742U 25088U   25232.58335648 -.00812549  00000+0 -29608-1 0  9997
2 63742  51.8714 269.3606 0003157 146.2025 101.4569 15.30196529 17700
KUIPER-00030            
1 63743U 25088V   25232.58335648  .00006533  00000+0  86260-3 0  9993
2 63743  51.8989 279.8199 0014505 139.3050  87.6633 14.80977918 17843
KUIPER-00031            
1 63744U 25088W   25232.33335648 -.00439021  00000+0 -22719-1 0  9998
2 63744  51.8802 271.4747 0003145 138.0963 106.5214 15.17830974 17658
KUIPER-00032            
1 63745U 25088X   25232.49567455  .00013792  00000+0  49056-3 0  9995
2 63745  51.8735 270.7415 0004793 111.2752 248.8744 15.29246893 18683
KUIPER-00033            
1 63746U 25088Y   25232.18478767  .00003523  00000+0  49106-3 0  9996
2 63746  51.9001 297.6466 0002807 229.0482 131.0237 14.79923149 17765
KUIPER-00034            
1 63747U 25088Z   25232.32795031 -.00208919  00000+0 -57777-2 0  9999
2 63747  51.8695 269.6951 0001357  29.9020 330.2044 15.37280876 17842
